{"type": "FeatureCollection", "features": [ {"type": "Feature", "properties": {"norad_id": 29963, "name": "FENGYUN 1C DEB", "group": "fengyun-1c-debris", "lat": 7.426848642602709, "lon": 49.303536999767516, "alt_km": 822.5715915013534, "timestamp": "2025-12-10T05:46:14.094962+00:00", "meta": {"OBJECT_NAME": "FENGYUN 1C DEB", "OBJECT_ID": "1999-025KM", "EPOCH": "2025-12-09T15:39:17.855136", "MEAN_MOTION": 14.29443911, "ECCENTRICITY": 0.0051722, "INCLINATION": 98.9981, "RA_OF_ASC_NODE": 227.5129, "ARG_OF_PERICENTER": 311.1837, "MEAN_ANOMALY": 76.6638, "EPHEMERIS_TYPE": 0, "CLASSIFICATION_TYPE": "U", "NORAD_CAT_ID": 29963, "ELEMENT_SET_NO": 999, "REV_AT_EPOCH": 98099, "BSTAR": 0.0012402, "MEAN_MOTION_DOT": 3.164e-05, "MEAN_MOTION_DDOT": 0}, "tle": {"line1": "1 29963U 99025KM  25343.65228999  .00003164  00000+0  12402-2 0  9995", "line2": "2 29963  98.9981 227.5129 0051722 311.1837  76.6638 14.29443911980993"}}, "geometry": {"type": "Point", "coordinates": [49.303536999767516, 7.426848642602709]}}, {"type": "Feature", "properties": {"norad_id": 29964, "name": "FENGYUN 1C DEB", "group": "fengyun-1c-debris", "lat": -51.86431054468865, "lon": -162.24509775887304, "alt_km": 809.2551281806573, "timestamp": "2025-12-10T05:46:14.094972+00:00", "meta": {"OBJECT_NAME": "FENGYUN 1C DEB", "OBJECT_ID": "1999-025KN", "EPOCH": "2025-12-09T19:44:46.691232", "MEAN_MOTION": 14.02730731, "ECCENTRICITY": 0.0130882, "INCLINATION": 98.3711, "RA_OF_ASC_NODE": 186.5611, "ARG_OF_PERICENTER": 277.8285, "MEAN_ANOMALY": 80.8043, "EPHEMERIS_TYPE": 0, "CLASSIFICATION_TYPE": "U", "NORAD_CAT_ID": 29964, "ELEMENT_SET_NO": 999, "REV_AT_EPOCH": 96276, "BSTAR": 0.0015175, "MEAN_MOTION_DOT": 2.488e-05, "MEAN_MOTION_DDOT": 0}, "tle": {"line1": "1 29964U 99025KN  25343.82276263  .00002488  00000+0  15175-2 0  9990", "line2": "2 29964  98.3711 186.5611 0130882 277.8285  80.8043 14.02730731962761"}}, "geometry": {"type": "Point", "coordinates": [-162.24509775887304, -51.86431054468865]}}, {"type": "Feature", "properties": {"norad_id": 29965, "name": "FENGYUN 1C DEB", "group": "fengyun-1c-debris", "lat": 58.153343392643315, "lon": 173.65605886639727, "alt_km": 827.7629092132183, "timestamp": "2025-12-10T05:46:14.094981+00:00", "meta": {"OBJECT_NAME": "FENGYUN 1C DEB", "OBJECT_ID": "1999-025KP", "EPOCH": "2025-12-09T11:00:07.121664", "MEAN_MOTION": 13.95773219, "ECCENTRICITY": 0.01462122, "INCLINATION": 98.9623, "RA_OF_ASC_NODE": 338.1775, "ARG_OF_PERICENTER": 76.9493, "MEAN_ANOMALY": 75.1298, "EPHEMERIS_TYPE": 0, "CLASSIFICATION_TYPE": "U", "NORAD_CAT_ID": 29965, "ELEMENT_SET_NO": 999, "REV_AT_EPOCH": 96230, "BSTAR": 0.00041354027, "MEAN_MOTION_DOT": 5.75e-06, "MEAN_MOTION_DDOT": 0}, "tle": {"line1": "1 29965U 99025KP  25343.45841576  .00000575  00000+0  41354-3 0  9999", "line2": "2 29965  98.9623 338.1775 0146212  76.9493  75.1298 13.95773219962307"}}, "geometry": {"type": "Point", "coordinates": [173.65605886639727, 58.153343392643315]}}, {"type": "Feature", "properties": {"norad_id": 29966, "name": "FENGYUN 1C DEB", "group": "fengyun-1c-debris", "lat": 53.451667581842926, "lon": 177.9524770619105, "alt_km": 787.4523988027504, "timestamp": "2025-12-10T05:46:14.094992+00:00", "meta": {"OBJECT_NAME": "FENGYUN 1C DEB", "OBJECT_ID": "1999-025KQ", "EPOCH": "2025-12-09T19:24:42.306336", "MEAN_MOTION": 14.25744843, "ECCENTRICITY": 0.0039726, "INCLINATION": 99.4916, "RA_OF_ASC_NODE": 190.5292, "ARG_OF_PERICENTER": 353.7237, "MEAN_ANOMALY": 6.3438, "EPHEMERIS_TYPE": 0, "CLASSIFICATION_TYPE": "U", "NORAD_CAT_ID": 29966, "ELEMENT_SET_NO": 999, "REV_AT_EPOCH": 98001, "BSTAR": 0.00062904, "MEAN_MOTION_DOT": 1.455e-05, "MEAN_MOTION_DDOT": 0}, "tle": {"line1": "1 29966U 99025KQ  25343.80882299  .00001455  00000+0  62904-3 0  9998", "line2": "2 29966  99.4916 190.5292 0039726 353.7237   6.3438 14.25744843980011"}}, "geometry": {"type": "Point", "coordinates": [177.9524770619105, 53.451667581842926]}}, {"type": "Feature", "properties": {"norad_id": 29967, "name": "FENGYUN 1C DEB", "group": "fengyun-1c-debris", "lat": -66.23299199704608, "lon": -139.932531528225, "alt_km": 786.8231298311439, "timestamp": "2025-12-10T05:46:14.095001+00:00", "meta": {"OBJECT_NAME": "FENGYUN 1C DEB", "OBJECT_ID": "1999-025KR", "EPOCH": "2025-12-07T16:35:37.538880", "MEAN_MOTION": 14.2354236, "ECCENTRICITY": 0.00756516, "INCLINATION": 98.8659, "RA_OF_ASC_NODE": 58.2588, "ARG_OF_PERICENTER": 307.2531, "MEAN_ANOMALY": 205.2875, "EPHEMERIS_TYPE": 0, "CLASSIFICATION_TYPE": "U", "NORAD_CAT_ID": 29967, "ELEMENT_SET_NO": 999, "REV_AT_EPOCH": 97150, "BSTAR": 0.0024744814, "MEAN_MOTION_DOT": 5.758e-05, "MEAN_MOTION_DDOT": 0}, "tle": {"line1": "1 29967U 99025KR  25341.69140670  .00005758  00000+0  24745-2 0  9994", "line2": "2 29967  98.8659  58.2588 0075651 307.2531 205.2875 14.23542360971502"}}, "geometry": {"type": "Point", "coordinates": [-139.932531528225, -66.23299199704608]}}, {"type": "Feature", "properties": {"norad_id": 29968, "name": "FENGYUN 1C DEB", "group": "fengyun-1c-debris", "lat": -43.238918882898716, "lon": -17.56693594710392, "alt_km": 829.3101724991502, "timestamp": "2025-12-10T05:46:14.095011+00:00", "meta": {"OBJECT_NAME": "FENGYUN 1C DEB", "OBJECT_ID": "1999-025KS", "EPOCH": "2025-12-09T10:14:39.180768", "MEAN_MOTION": 14.07253553, "ECCENTRICITY": 0.00902408, "INCLINATION": 98.8043, "RA_OF_ASC_NODE": 333.2606, "ARG_OF_PERICENTER": 4.0864, "MEAN_ANOMALY": 153.3587, "EPHEMERIS_TYPE": 0, "CLASSIFICATION_TYPE": "U", "NORAD_CAT_ID": 29968, "ELEMENT_SET_NO": 999, "REV_AT_EPOCH": 97002, "BSTAR": 0.00043681857, "MEAN_MOTION_DOT": 7.17e-06, "MEAN_MOTION_DDOT": 0}, "tle": {"line1": "1 29968U 99025KS  25343.42684237  .00000717  00000+0  43682-3 0  9992", "line2": "2 29968  98.8043 333.2606 0090240   4.0864 153.3587 14.07253553970023"}}, "geometry": {"type": "Point", "coordinates": [-17.56693594710392, -43.238918882898716]}}, {"type": "Feature", "properties": {"norad_id": 29969, "name": "FENGYUN 1C DEB", "group": "fengyun-1c-debris", "lat": 37.78470790783271, "lon": -104.61169409785656, "alt_km": 774.7053038052127, "timestamp": "2025-12-10T05:46:14.095022+00:00", "meta": {"OBJECT_NAME": "FENGYUN 1C DEB", "OBJECT_ID": "1999-025KT", "EPOCH": "2025-12-09T04:15:37.447200", "MEAN_MOTION": 14.33165036, "ECCENTRICITY": 0.00419739, "INCLINATION": 98.7705, "RA_OF_ASC_NODE": 67.4383, "ARG_OF_PERICENTER": 61.4012, "MEAN_ANOMALY": 358.7764, "EPHEMERIS_TYPE": 0, "CLASSIFICATION_TYPE": "U", "NORAD_CAT_ID": 29969, "ELEMENT_SET_NO": 999, "REV_AT_EPOCH": 97611, "BSTAR": 0.0020633579, "MEAN_MOTION_DOT": 5.68e-05, "MEAN_MOTION_DDOT": 0}, "tle": {"line1": "1 29969U 99025KT  25343.17751675  .00005680  00000+0  20634-2 0  9991", "line2": "2 29969  98.7705  67.4383 0041973  61.4012 358.7764 14.33165036976118"}}, "geometry": {"type": "Point", "coordinates": [-104.61169409785656, 37.78470790783271]}}, {"type": "Feature", "properties": {"norad_id": 29970, "name": "FENGYUN 1C DEB", "group": "fengyun-1c-debris", "lat": -68.91970623879084, "lon": 68.74703477312023, "alt_km": 715.9842842828766, "timestamp": "2025-12-10T05:46:14.095031+00:00", "meta": {"OBJECT_NAME": "FENGYUN 1C DEB", "OBJECT_ID": "1999-025KU", "EPOCH": "2025-12-09T18:44:01.366368", "MEAN_MOTION": 14.43938763, "ECCENTRICITY": 0.0090603, "INCLINATION": 98.8079, "RA_OF_ASC_NODE": 271.9891, "ARG_OF_PERICENTER": 196.3899, "MEAN_ANOMALY": 184.3733, "EPHEMERIS_TYPE": 0, "CLASSIFICATION_TYPE": "U", "NORAD_CAT_ID": 29970, "ELEMENT_SET_NO": 999, "REV_AT_EPOCH": 99078, "BSTAR": 0.00077016, "MEAN_MOTION_DOT": 2.714e-05, "MEAN_MOTION_DDOT": 0}, "tle": {"line1": "1 29970U 99025KU  25343.78057137  .00002714  00000+0  77016-3 0  9994", "line2": "2 29970  98.8079 271.9891 0090603 196.3899 184.3733 14.43938763990780"}}, "geometry": {"type": "Point", "coordinates": [68.74703477312023, -68.91970623879084]}}, {"type": "Feature", "properties": {"norad_id": 29971, "name": "FENGYUN 1C DEB", "group": "fengyun-1c-debris", "lat": 76.92388431442892, "lon": -114.79310569462322, "alt_km": 819.8343582068674, "timestamp": "2025-12-10T05:46:14.095042+00:00", "meta": {"OBJECT_NAME": "FENGYUN 1C DEB", "OBJECT_ID": "1999-025KV", "EPOCH": "2025-12-09T14:46:27.311232", "MEAN_MOTION": 14.18163844, "ECCENTRICITY": 0.0023727, "INCLINATION": 98.6833, "RA_OF_ASC_NODE": 23.4521, "ARG_OF_PERICENTER": 176.6232, "MEAN_ANOMALY": 335.1354, "EPHEMERIS_TYPE": 0, "CLASSIFICATION_TYPE": "U", "NORAD_CAT_ID": 29971, "ELEMENT_SET_NO": 999, "REV_AT_EPOCH": 97295, "BSTAR": 0.001296, "MEAN_MOTION_DOT": 2.627e-05, "MEAN_MOTION_DDOT": 0}, "tle": {"line1": "1 29971U 99025KV  25343.61559388  .00002627  00000+0  12960-2 0  9991", "line2": "2 29971  98.6833  23.4521 0023727 176.6232 335.1354 14.18163844972958"}}, "geometry": {"type": "Point", "coordinates": [-114.79310569462322, 76.92388431442892]}}, {"type": "Feature", "properties": {"norad_id": 29972, "name": "FENGYUN 1C DEB", "group": "fengyun-1c-debris", "lat": -10.50962888375563, "lon": 174.45780393501497, "alt_km": 722.4274265959657, "timestamp": "2025-12-10T05:46:14.095051+00:00", "meta": {"OBJECT_NAME": "FENGYUN 1C DEB", "OBJECT_ID": "1999-025KW", "EPOCH": "2025-12-09T19:53:00.703104", "MEAN_MOTION": 14.66281891, "ECCENTRICITY": 0.0065097, "INCLINATION": 98.9217, "RA_OF_ASC_NODE": 355.6803, "ARG_OF_PERICENTER": 21.3305, "MEAN_ANOMALY": 155.7482, "EPHEMERIS_TYPE": 0, "CLASSIFICATION_TYPE": "U", "NORAD_CAT_ID": 29972, "ELEMENT_SET_NO": 999, "REV_AT_EPOCH": 99443, "BSTAR": 0.0020129, "MEAN_MOTION_DOT": 0.00011411, "MEAN_MOTION_DDOT": 0}, "tle": {"line1": "1 29972U 99025KW  25343.82848036  .00011411  00000+0  20129-2 0  9993", "line2": "2 29972  98.9217 355.6803 0065097  21.3305 155.7482 14.66281891994435"}}, "geometry": {"type": "Point", "coordinates": [174.45780393501497, -10.50962888375563]}}]}